STARLINK-30369          
1 57781U 23134L   26068.39817921  .00000027  00000+0  10492-4 0  9991
2 57781  42.9965 195.9954 0000523 285.4922  74.5872 15.27583915139461
FLOCK 4G-23             
1 62647U 25009AQ  26068.71663397  .00012440  00000+0  46816-3 0  9993
2 62647  97.3979 150.9478 0000905   7.2707 352.8545 15.27262579 63728
